IRIDIUM 36              
1 24967U 97056C   24345.50016961  .00001043  00000+0  34357-3 0  9993
2 24967  86.3970 252.2139 0001979  80.6700 279.4721 14.37285321425115
IRIDIUM 39              
1 25042U 97069D   24345.94689483  .00001599  00000+0  41852-3 0  9999
2 25042  86.3899 291.8446 0016542 209.3335 150.6942 14.48707227421708
IRIDIUM 38              
1 25043U 97069E   24345.93697240  .00001157  00000+0  37803-3 0  9990
2 25043  86.3943 312.3795 0002963  47.1328 313.0119 14.37771515418905
IRIDIUM 42              
1 25077U 97077A   24345.99229204  .00001087  00000+0  36757-3 0  9992
2 25077  86.3948 318.2951 0002572  71.6456 288.5020 14.36033169414184
IRIDIUM 44              
1 25078U 97077B   24345.75844132  .00001189  00000+0  37224-3 0  9993
2 25078  86.3939 300.8103 0000921  36.0981 324.0280 14.39901998416582
IRIDIUM 45              
1 25104U 97082A   24345.76328557  .00020684  00000+0  93779-3 0  9996
2 25104  86.3630 138.7215 0136881 313.4641  45.5276 15.12613059423467
IRIDIUM 24              
1 25105U 97082B   24345.76397497  .00001161  00000+0  34977-3 0  9990
2 25105  86.3923 160.1701 0011002 350.9225   9.1774 14.41723795416060
IRIDIUM 51              
1 25262U 98018A   24345.90982001  .00035500  00000+0  12195-2 0  9992
2 25262  86.3904 147.8806 0115680 245.9861 112.9242 15.23694617418423
